BRITE-AUSTRIA           
1 39091U 13009F   24366.58657747  .00000908  00000+0  32620-3 0  9997
2 39091  98.3817 188.7842 0010945  35.6986 324.4930 14.36131145620590
DELFI-N3XT              
1 39428U 13066N   24366.49314031  .00014993  00000+0  16651-2 0  9994
2 39428  97.8385 280.3747 0091025 165.2058 195.1852 14.84280922595294
CUBEBUG-2 (LO-74)       
1 39440U 13066AA  24366.58269841  .00014506  00000+0  15499-2 0  9995
2 39440  97.8344 306.7065 0065123 348.9371  11.0409 14.87312040597631
CANX-4                  
1 40055U 14034C   24366.64405022  .00004647  00000+0  62925-3 0  9997
2 40055  98.3760 209.6642 0012028 281.8535  78.1326 14.79437493565737
FOX-1A (AO-85)          
1 40967U 15058D   25001.07932343  .00014613  00000+0  12524-2 0  9994
2 40967  64.7767 127.2080 0182443 244.7605 113.4498 14.85715402 34357
SNAP-3 ALICE            
1 40970U 15058G   24366.42722691  .00046161  00000+0  23826-2 0  9993
2 40970  64.7677  62.0400 0128072 243.1674 115.6305 15.09143321 35400
PROPCUBE 3              
1 40973U 15058K   24366.81524759  .00016103  00000+0  13049-2 0  9993
2 40973  64.7709 109.3389 0179738 247.7802 110.4157 14.88021740 35390
SNAP-3 JIMI             
1 40975U 15058M   24366.86240945  .00023812  00000+0  17478-2 0  9997
2 40975  64.7690  93.5714 0167748 246.9146 111.4209 14.92817304 34478
PROMETHEUS 2-3          
1 41855U 16067H   24366.82545373  .00063132  00000+0  20593-2 0  9996
2 41855  98.0849 196.7966 0008182  99.6205 260.5959 15.31528932445825
CORVUS BC4              
1 43767U 18099K   25001.08152974  .00012672  00000+0  87524-3 0  9994
2 43767  97.4856  54.4393 0010443  37.1114 323.0833 15.05843220332139
SPACEBEE-6              
1 43818U 18099BN  25001.18410433  .01206572  00000+0  42928-2 0  9992
2 43818  97.4973  82.2169 0007754 297.5781  62.4701 15.86497495333406
SHIELDS 1               
1 43850U 18104B   24366.77557866  .00041035  00000+0  75666-3 0  9991
2 43850  85.0201 148.0045 0009781  45.8425 314.3634 15.48903673336623
GRBALPHA                
1 47959U 21022AD  25001.13999468  .00101987  00000+0  20857-2 0  9997
2 47959  97.4392 267.4165 0010713 132.5483 227.6672 15.45697971207756
ROBUSTA-1E (ENSO)       
1 58470U 23185J   25001.12316627  .00059760  00000+0  16100-2 0  9995
2 58470  97.3998  73.2450 0008571 299.1586  60.8800 15.37587317 60390
SITRO-AIS 31            
1 59054U 24039D   25001.09513603  .00106841  00000+0  18851-2 0  9990
2 59054  97.4107 330.3848 0008290 210.2593 149.8180 15.49969264 47000
SITRO-AIS 35            
1 59056U 24039F   25001.12864840  .00113841  00000+0  19905-2 0  9997
2 59056  97.4108 330.4996 0007933 209.9924 150.0874 15.50203349 47005
